[
  {
    "OBJECT_NAME": "STARLINK-5007",
    "OBJECT_ID": "23099AP",
    "EPOCH": "2025-11-11T06:26:08.386368",
    "MEAN_MOTION": 15.02527091,
    "ECCENTRICITY": 0.0001083,
    "INCLINATION": 43.0021,
    "RA_OF_ASC_NODE": 159.3422,
    "ARG_OF_PERICENTER": 269.6623,
    "MEAN_ANOMALY": 90.4096,
    "EPHEMERIS_TYPE": 0,
    "CLASSIFICATION_TYPE": "U",
    "NORAD_CAT_ID": 57365,
    "ELEMENT_SET_NO": 999,
    "REV_AT_EPOCH": 12845,
    "BSTAR": 0.0,
    "MEAN_MOTION_DOT": -5.84e-06,
    "MEAN_MOTION_DDOT": 0.0,
    "TLE_LINE1": "1 57365U 23099AP  25315.26815262 -.00000584  00000+0 -28180-4 0  9998",
    "TLE_LINE2": "2 57365  43.0021 159.3422 0001083 269.6623  90.4096 15.02527091128450",
    "COMMENT": "Grouped by shell and plane from TLE"
  },
  {
    "OBJECT_NAME": "STARLINK-6174",
    "OBJECT_ID": "23099AQ",
    "EPOCH": "2025-11-11T06:30:55.234368",
    "MEAN_MOTION": 15.02538096,
    "ECCENTRICITY": 0.0001166,
    "INCLINATION": 43.0057,
    "RA_OF_ASC_NODE": 159.3703,
    "ARG_OF_PERICENTER": 276.8591,
    "MEAN_ANOMALY": 83.2119,
    "EPHEMERIS_TYPE": 0,
    "CLASSIFICATION_TYPE": "U",
    "NORAD_CAT_ID": 57366,
    "ELEMENT_SET_NO": 999,
    "REV_AT_EPOCH": 12845,
    "BSTAR": 9.697400000000001e-05,
    "MEAN_MOTION_DOT": 1.107e-05,
    "MEAN_MOTION_DDOT": 0.0,
    "TLE_LINE1": "1 57366U 23099AQ  25315.27147262  .00001107  00000+0  96974-4 0  9994",
    "TLE_LINE2": "2 57366  43.0057 159.3703 0001166 276.8591  83.2119 15.02538096128451",
    "COMMENT": "Grouped by shell and plane from TLE"
  },
  {
    "OBJECT_NAME": "STARLINK-6218",
    "OBJECT_ID": "23099AS",
    "EPOCH": "2025-11-11T06:22:58.193184",
    "MEAN_MOTION": 15.02505302,
    "ECCENTRICITY": 0.0001606,
    "INCLINATION": 43.0025,
    "RA_OF_ASC_NODE": 159.3263,
    "ARG_OF_PERICENTER": 254.2928,
    "MEAN_ANOMALY": 105.7737,
    "EPHEMERIS_TYPE": 0,
    "CLASSIFICATION_TYPE": "U",
    "NORAD_CAT_ID": 57368,
    "ELEMENT_SET_NO": 999,
    "REV_AT_EPOCH": 12845,
    "BSTAR": 0.0,
    "MEAN_MOTION_DOT": -2.911e-05,
    "MEAN_MOTION_DDOT": 0.0,
    "TLE_LINE1": "1 57368U 23099AS  25315.26595131 -.00002911  00000+0 -20068-3 0  9993",
    "TLE_LINE2": "2 57368  43.0025 159.3263 0001606 254.2928 105.7737 15.02505302128452",
    "COMMENT": "Grouped by shell and plane from TLE"
  },
  {
    "OBJECT_NAME": "STARLINK-6168",
    "OBJECT_ID": "23099AT",
    "EPOCH": "2025-11-11T06:35:42.859104",
    "MEAN_MOTION": 15.02535025,
    "ECCENTRICITY": 0.000103,
    "INCLINATION": 43.0024,
    "RA_OF_ASC_NODE": 159.3987,
    "ARG_OF_PERICENTER": 263.7162,
    "MEAN_ANOMALY": 96.3563,
    "EPHEMERIS_TYPE": 0,
    "CLASSIFICATION_TYPE": "U",
    "NORAD_CAT_ID": 57369,
    "ELEMENT_SET_NO": 999,
    "REV_AT_EPOCH": 12845,
    "BSTAR": 6.538900000000001e-05,
    "MEAN_MOTION_DOT": 6.8e-06,
    "MEAN_MOTION_DDOT": 0.0,
    "TLE_LINE1": "1 57369U 23099AT  25315.27480161  .00000680  00000+0  65389-4 0  9996",
    "TLE_LINE2": "2 57369  43.0024 159.3987 0001030 263.7162  96.3563 15.02535025128458",
    "COMMENT": "Grouped by shell and plane from TLE"
  },
  {
    "OBJECT_NAME": "STARLINK-5353",
    "OBJECT_ID": "23099AU",
    "EPOCH": "2025-11-11T06:13:20.818272",
    "MEAN_MOTION": 15.02534615,
    "ECCENTRICITY": 9.86e-05,
    "INCLINATION": 43.0029,
    "RA_OF_ASC_NODE": 159.2748,
    "ARG_OF_PERICENTER": 268.1415,
    "MEAN_ANOMALY": 91.9315,
    "EPHEMERIS_TYPE": 0,
    "CLASSIFICATION_TYPE": "U",
    "NORAD_CAT_ID": 57370,
    "ELEMENT_SET_NO": 999,
    "REV_AT_EPOCH": 12845,
    "BSTAR": 0.00010290000000000001,
    "MEAN_MOTION_DOT": 1.187e-05,
    "MEAN_MOTION_DDOT": 0.0,
    "TLE_LINE1": "1 57370U 23099AU  25315.25926873  .00001187  00000+0  10290-3 0  9994",
    "TLE_LINE2": "2 57370  43.0029 159.2748 0000986 268.1415  91.9315 15.02534615128458",
    "COMMENT": "Grouped by shell and plane from TLE"
  },
  {
    "OBJECT_NAME": "STARLINK-6032",
    "OBJECT_ID": "23099AV",
    "EPOCH": "2025-11-11T06:32:31.029504",
    "MEAN_MOTION": 15.02538667,
    "ECCENTRICITY": 0.0001064,
    "INCLINATION": 43.0026,
    "RA_OF_ASC_NODE": 159.3796,
    "ARG_OF_PERICENTER": 270.2557,
    "MEAN_ANOMALY": 89.8163,
    "EPHEMERIS_TYPE": 0,
    "CLASSIFICATION_TYPE": "U",
    "NORAD_CAT_ID": 57371,
    "ELEMENT_SET_NO": 999,
    "REV_AT_EPOCH": 12845,
    "BSTAR": 3.3562e-05,
    "MEAN_MOTION_DOT": 2.5e-06,
    "MEAN_MOTION_DDOT": 0.0,
    "TLE_LINE1": "1 57371U 23099AV  25315.27258136  .00000250  00000+0  33562-4 0  9995",
    "TLE_LINE2": "2 57371  43.0026 159.3796 0001064 270.2557  89.8163 15.02538667128457",
    "COMMENT": "Grouped by shell and plane from TLE"
  },
  {
    "OBJECT_NAME": "STARLINK-6363",
    "OBJECT_ID": "23099AZ",
    "EPOCH": "2025-11-11T06:11:43.548288",
    "MEAN_MOTION": 15.02575499,
    "ECCENTRICITY": 9.04e-05,
    "INCLINATION": 43.0025,
    "RA_OF_ASC_NODE": 159.2686,
    "ARG_OF_PERICENTER": 251.5503,
    "MEAN_ANOMALY": 108.5242,
    "EPHEMERIS_TYPE": 0,
    "CLASSIFICATION_TYPE": "U",
    "NORAD_CAT_ID": 57375,
    "ELEMENT_SET_NO": 999,
    "REV_AT_EPOCH": 12845,
    "BSTAR": 0.0,
    "MEAN_MOTION_DOT": -0.00010855,
    "MEAN_MOTION_DDOT": 0.0,
    "TLE_LINE1": "1 57375U 23099AZ  25315.25814292 -.00010855  00000+0 -78892-3 0  9996",
    "TLE_LINE2": "2 57375  43.0025 159.2686 0000904 251.5503 108.5242 15.02575499128453",
    "COMMENT": "Grouped by shell and plane from TLE"
  },
  {
    "OBJECT_NAME": "STARLINK-6358",
    "OBJECT_ID": "23099BB",
    "EPOCH": "2025-11-11T06:03:44.938080",
    "MEAN_MOTION": 15.02537141,
    "ECCENTRICITY": 8.75e-05,
    "INCLINATION": 43.0028,
    "RA_OF_ASC_NODE": 159.2305,
    "ARG_OF_PERICENTER": 257.7878,
    "MEAN_ANOMALY": 102.2867,
    "EPHEMERIS_TYPE": 0,
    "CLASSIFICATION_TYPE": "U",
    "NORAD_CAT_ID": 57377,
    "ELEMENT_SET_NO": 999,
    "REV_AT_EPOCH": 12845,
    "BSTAR": 4.0886e-05,
    "MEAN_MOTION_DOT": 3.49e-06,
    "MEAN_MOTION_DDOT": 0.0,
    "TLE_LINE1": "1 57377U 23099BB  25315.25260345  .00000349  00000+0  40886-4 0  9990",
    "TLE_LINE2": "2 57377  43.0028 159.2305 0000875 257.7878 102.2867 15.02537141128452",
    "COMMENT": "Grouped by shell and plane from TLE"
  },
  {
    "OBJECT_NAME": "STARLINK-30403",
    "OBJECT_ID": "23138F",
    "EPOCH": "2025-11-11T06:58:06.125952",
    "MEAN_MOTION": 15.02539475,
    "ECCENTRICITY": 9.8e-05,
    "INCLINATION": 43.0021,
    "RA_OF_ASC_NODE": 159.597,
    "ARG_OF_PERICENTER": 268.6987,
    "MEAN_ANOMALY": 91.3743,
    "EPHEMERIS_TYPE": 0,
    "CLASSIFICATION_TYPE": "U",
    "NORAD_CAT_ID": 57813,
    "ELEMENT_SET_NO": 999,
    "REV_AT_EPOCH": 12080,
    "BSTAR": 8.1629e-05,
    "MEAN_MOTION_DOT": 8.99e-06,
    "MEAN_MOTION_DDOT": 0.0,
    "TLE_LINE1": "1 57813U 23138F   25315.29034868  .00000899  00000+0  81629-4 0  9992",
    "TLE_LINE2": "2 57813  43.0021 159.5970 0000980 268.6987  91.3743 15.02539475120804",
    "COMMENT": "Grouped by shell and plane from TLE"
  },
  {
    "OBJECT_NAME": "STARLINK-30413",
    "OBJECT_ID": "23138G",
    "EPOCH": "2025-11-11T06:29:22.367328",
    "MEAN_MOTION": 15.02506044,
    "ECCENTRICITY": 4.62e-05,
    "INCLINATION": 43.001,
    "RA_OF_ASC_NODE": 159.4534,
    "ARG_OF_PERICENTER": 285.6567,
    "MEAN_ANOMALY": 74.4225,
    "EPHEMERIS_TYPE": 0,
    "CLASSIFICATION_TYPE": "U",
    "NORAD_CAT_ID": 57814,
    "ELEMENT_SET_NO": 999,
    "REV_AT_EPOCH": 12090,
    "BSTAR": 3.4519e-05,
    "MEAN_MOTION_DOT": 2.63e-06,
    "MEAN_MOTION_DDOT": 0.0,
    "TLE_LINE1": "1 57814U 23138G   25315.27039777  .00000263  00000+0  34519-4 0  9996",
    "TLE_LINE2": "2 57814  43.0010 159.4534 0000462 285.6567  74.4225 15.02506044120900",
    "COMMENT": "Grouped by shell and plane from TLE"
  },
  {
    "OBJECT_NAME": "STARLINK-30398",
    "OBJECT_ID": "23138H",
    "EPOCH": "2025-11-11T06:53:18.466656",
    "MEAN_MOTION": 15.02539264,
    "ECCENTRICITY": 0.0001096,
    "INCLINATION": 43.0029,
    "RA_OF_ASC_NODE": 159.5726,
    "ARG_OF_PERICENTER": 271.8028,
    "MEAN_ANOMALY": 88.2689,
    "EPHEMERIS_TYPE": 0,
    "CLASSIFICATION_TYPE": "U",
    "NORAD_CAT_ID": 57815,
    "ELEMENT_SET_NO": 999,
    "REV_AT_EPOCH": 12080,
    "BSTAR": 7.9031e-05,
    "MEAN_MOTION_DOT": 8.64e-06,
    "MEAN_MOTION_DDOT": 0.0,
    "TLE_LINE1": "1 57815U 23138H   25315.28701929  .00000864  00000+0  79031-4 0  9998",
    "TLE_LINE2": "2 57815  43.0029 159.5726 0001096 271.8028  88.2689 15.02539264120804",
    "COMMENT": "Grouped by shell and plane from TLE"
  },
  {
    "OBJECT_NAME": "STARLINK-30386",
    "OBJECT_ID": "23138J",
    "EPOCH": "2025-11-11T06:48:29.335968",
    "MEAN_MOTION": 15.02566099,
    "ECCENTRICITY": 0.0003249,
    "INCLINATION": 43.0063,
    "RA_OF_ASC_NODE": 159.5448,
    "ARG_OF_PERICENTER": 254.9308,
    "MEAN_ANOMALY": 105.1175,
    "EPHEMERIS_TYPE": 0,
    "CLASSIFICATION_TYPE": "U",
    "NORAD_CAT_ID": 57816,
    "ELEMENT_SET_NO": 999,
    "REV_AT_EPOCH": 12072,
    "BSTAR": 0.0,
    "MEAN_MOTION_DOT": -4.39e-06,
    "MEAN_MOTION_DDOT": 0.0,
    "TLE_LINE1": "1 57816U 23138J   25315.28367287 -.00000439  00000+0 -17334-4 0  9992",
    "TLE_LINE2": "2 57816  43.0063 159.5448 0003249 254.9308 105.1175 15.02566099120725",
    "COMMENT": "Grouped by shell and plane from TLE"
  },
  {
    "OBJECT_NAME": "STARLINK-30391",
    "OBJECT_ID": "23138K",
    "EPOCH": "2025-11-11T06:43:41.862432",
    "MEAN_MOTION": 15.02569529,
    "ECCENTRICITY": 0.0002243,
    "INCLINATION": 43.0043,
    "RA_OF_ASC_NODE": 159.5192,
    "ARG_OF_PERICENTER": 264.5218,
    "MEAN_ANOMALY": 95.5368,
    "EPHEMERIS_TYPE": 0,
    "CLASSIFICATION_TYPE": "U",
    "NORAD_CAT_ID": 57817,
    "ELEMENT_SET_NO": 999,
    "REV_AT_EPOCH": 12090,
    "BSTAR": 0.0,
    "MEAN_MOTION_DOT": -5.308e-05,
    "MEAN_MOTION_DDOT": 0.0,
    "TLE_LINE1": "1 57817U 23138K   25315.28034563 -.00005308  00000+0 -37778-3 0  9994",
    "TLE_LINE2": "2 57817  43.0043 159.5192 0002243 264.5218  95.5368 15.02569529120907",
    "COMMENT": "Grouped by shell and plane from TLE"
  }
]